[
    {
       "CCSDS_OMM_VERS":"2.0",
       "COMMENT":"GENERATED VIA SPACE-TRACK.ORG API",
       "CREATION_DATE":"2022-08-10T08:16:11",
       "ORIGINATOR":"18 SPCS",
       "OBJECT_NAME":"STARLINK-4113",
       "OBJECT_ID":"2022-086AE",
       "CENTER_NAME":"EARTH",
       "REF_FRAME":"TEME",
       "TIME_SYSTEM":"UTC",
       "MEAN_ELEMENT_THEORY":"SGP4",
       "EPOCH":"2022-08-10T07:14:53.708928",
       "MEAN_MOTION":"16.36277687",
       "ECCENTRICITY":"0.00154230",
       "INCLINATION":"53.2069",
       "RA_OF_ASC_NODE":"317.7790",
       "ARG_OF_PERICENTER":"95.0846",
       "MEAN_ANOMALY":"13.6837",
       "EPHEMERIS_TYPE":"0",
       "CLASSIFICATION_TYPE":"U",
       "NORAD_CAT_ID":"53270",
       "ELEMENT_SET_NO":"999",
       "REV_AT_EPOCH":"330",
       "BSTAR":"0.00259500000000",
       "MEAN_MOTION_DOT":"0.24301438",
       "MEAN_MOTION_DDOT":"0.0000122210000",
       "SEMIMAJOR_AXIS":"6553.860",
       "PERIOD":"88.005",
       "APOAPSIS":"185.833",
       "PERIAPSIS":"165.617",
       "OBJECT_TYPE":"PAYLOAD",
       "RCS_SIZE":"LARGE",
       "COUNTRY_CODE":"US",
       "LAUNCH_DATE":"2022-07-24",
       "SITE":"AFETR",
       "DECAY_DATE":"2022-08-10",
       "FILE":"3533414",
       "GP_ID":"209938539",
       "TLE_LINE0":"0 STARLINK-4113",
       "TLE_LINE1":"1 53270U 22086AE  22222.30201052  .24301438  12221-4  25950-2 0  9998",
       "TLE_LINE2":"2 53270  53.2069 317.7790 0015423  95.0846  13.6837 16.36277687  3302"
    },
    {
       "CCSDS_OMM_VERS":"2.0",
       "COMMENT":"GENERATED VIA SPACE-TRACK.ORG API",
       "CREATION_DATE":"2022-08-31T04:26:11",
       "ORIGINATOR":"18 SPCS",
       "OBJECT_NAME":"DRAGON CRS-25 DEB",
       "OBJECT_ID":"2022-081B",
       "CENTER_NAME":"EARTH",
       "REF_FRAME":"TEME",
       "TIME_SYSTEM":"UTC",
       "MEAN_ELEMENT_THEORY":"SGP4",
       "EPOCH":"2022-08-31T02:48:48.800736",
       "MEAN_MOTION":"16.45340042",
       "ECCENTRICITY":"0.00137380",
       "INCLINATION":"51.6220",
       "RA_OF_ASC_NODE":"320.1959",
       "ARG_OF_PERICENTER":"231.4746",
       "MEAN_ANOMALY":"130.9216",
       "EPHEMERIS_TYPE":"0",
       "CLASSIFICATION_TYPE":"U",
       "NORAD_CAT_ID":"53584",
       "ELEMENT_SET_NO":"999",
       "REV_AT_EPOCH":"738",
       "BSTAR":"0.00025548000000",
       "MEAN_MOTION_DOT":"0.11486784",
       "MEAN_MOTION_DDOT":"0.0000124060000",
       "SEMIMAJOR_AXIS":"6529.773",
       "PERIOD":"87.520",
       "APOAPSIS":"160.608",
       "PERIAPSIS":"142.667",
       "OBJECT_TYPE":"DEBRIS",
       "RCS_SIZE":"LARGE",
       "COUNTRY_CODE":"US",
       "LAUNCH_DATE":"2022-07-15",
       "SITE":"AFETR",
       "DECAY_DATE":"2022-08-31",
       "FILE":"3552195",
       "GP_ID":"211363944",
       "TLE_LINE0":"0 DRAGON CRS-25 DEB",
       "TLE_LINE1":"1 53584U 22081B   22243.11723149  .11486784  12406-4  25548-3 0  9992",
       "TLE_LINE2":"2 53584  51.6220 320.1959 0013738 231.4746 130.9216 16.45340042  7380"
    },
    {
       "CCSDS_OMM_VERS":"2.0",
       "COMMENT":"GENERATED VIA SPACE-TRACK.ORG API",
       "CREATION_DATE":"2022-10-24T18:46:12",
       "ORIGINATOR":"18 SPCS",
       "OBJECT_NAME":"STARLINK-4696",
       "OBJECT_ID":"2022-107L",
       "CENTER_NAME":"EARTH",
       "REF_FRAME":"TEME",
       "TIME_SYSTEM":"UTC",
       "MEAN_ELEMENT_THEORY":"SGP4",
       "EPOCH":"2022-10-24T18:00:00.999648",
       "MEAN_MOTION":"16.23497249",
       "ECCENTRICITY":"0.00098110",
       "INCLINATION":"53.2011",
       "RA_OF_ASC_NODE":"19.0510",
       "ARG_OF_PERICENTER":"8.8123",
       "MEAN_ANOMALY":"344.1608",
       "EPHEMERIS_TYPE":"0",
       "CLASSIFICATION_TYPE":"U",
       "NORAD_CAT_ID":"53710",
       "ELEMENT_SET_NO":"999",
       "REV_AT_EPOCH":"805",
       "BSTAR":"0.00083852000000",
       "MEAN_MOTION_DOT":"0.02226837",
       "MEAN_MOTION_DDOT":"0.0000119220000",
       "SEMIMAJOR_AXIS":"6588.211",
       "PERIOD":"88.697",
       "APOAPSIS":"216.539",
       "PERIAPSIS":"203.612",
       "OBJECT_TYPE":"PAYLOAD",
       "RCS_SIZE":"LARGE",
       "COUNTRY_CODE":"US",
       "LAUNCH_DATE":"2022-09-05",
       "SITE":"AFETR",
       "DECAY_DATE":"2022-10-24",
       "FILE":"3631459",
       "GP_ID":"216042421",
       "TLE_LINE0":"0 STARLINK-4696",
       "TLE_LINE1":"1 53710U 22107L   22297.75001157  .02226837  11922-4  83852-3 0  9994",
       "TLE_LINE2":"2 53710  53.2011  19.0510 0009811   8.8123 344.1608 16.23497249  8053"
    },
    {
       "CCSDS_OMM_VERS":"2.0",
       "COMMENT":"GENERATED VIA SPACE-TRACK.ORG API",
       "CREATION_DATE":"2022-10-24T02:46:11",
       "ORIGINATOR":"18 SPCS",
       "OBJECT_NAME":"STARLINK-4702",
       "OBJECT_ID":"2022-107T",
       "CENTER_NAME":"EARTH",
       "REF_FRAME":"TEME",
       "TIME_SYSTEM":"UTC",
       "MEAN_ELEMENT_THEORY":"SGP4",
       "EPOCH":"2022-10-23T16:55:22.963296",
       "MEAN_MOTION":"16.39262933",
       "ECCENTRICITY":"0.00069600",
       "INCLINATION":"53.2004",
       "RA_OF_ASC_NODE":"23.5950",
       "ARG_OF_PERICENTER":"345.5416",
       "MEAN_ANOMALY":"139.8293",
       "EPHEMERIS_TYPE":"0",
       "CLASSIFICATION_TYPE":"U",
       "NORAD_CAT_ID":"53717",
       "ELEMENT_SET_NO":"999",
       "REV_AT_EPOCH":"787",
       "BSTAR":"0.00044246000000",
       "MEAN_MOTION_DOT":"0.05598093",
       "MEAN_MOTION_DDOT":"0.0000124120000",
       "SEMIMAJOR_AXIS":"6545.901",
       "PERIOD":"87.844",
       "APOAPSIS":"172.322",
       "PERIAPSIS":"163.210",
       "OBJECT_TYPE":"PAYLOAD",
       "RCS_SIZE":"LARGE",
       "COUNTRY_CODE":"US",
       "LAUNCH_DATE":"2022-09-05",
       "SITE":"AFETR",
       "DECAY_DATE":"2022-10-24",
       "FILE":"3630602",
       "GP_ID":"215972813",
       "TLE_LINE0":"0 STARLINK-4702",
       "TLE_LINE1":"1 53717U 22107T   22296.70512689  .05598093  12412-4  44246-3 0  9990",
       "TLE_LINE2":"2 53717  53.2004  23.5950 0006960 345.5416 139.8293 16.39262933  7873"
    },
    {
       "CCSDS_OMM_VERS":"2.0",
       "COMMENT":"GENERATED VIA SPACE-TRACK.ORG API",
       "CREATION_DATE":"2022-10-30T01:36:12",
       "ORIGINATOR":"18 SPCS",
       "OBJECT_NAME":"STARLINK-4704",
       "OBJECT_ID":"2022-107AB",
       "CENTER_NAME":"EARTH",
       "REF_FRAME":"TEME",
       "TIME_SYSTEM":"UTC",
       "MEAN_ELEMENT_THEORY":"SGP4",
       "EPOCH":"2022-10-29T15:21:09.512352",
       "MEAN_MOTION":"16.28400829",
       "ECCENTRICITY":"0.00083170",
       "INCLINATION":"53.1999",
       "RA_OF_ASC_NODE":"353.7843",
       "ARG_OF_PERICENTER":"38.8738",
       "MEAN_ANOMALY":"102.2228",
       "EPHEMERIS_TYPE":"0",
       "CLASSIFICATION_TYPE":"U",
       "NORAD_CAT_ID":"53725",
       "ELEMENT_SET_NO":"999",
       "REV_AT_EPOCH":"881",
       "BSTAR":"0.00391170000000",
       "MEAN_MOTION_DOT":"0.15917474",
       "MEAN_MOTION_DDOT":"0.0000121390000",
       "SEMIMAJOR_AXIS":"6574.978",
       "PERIOD":"88.430",
       "APOAPSIS":"202.311",
       "PERIAPSIS":"191.375",
       "OBJECT_TYPE":"PAYLOAD",
       "RCS_SIZE":"LARGE",
       "COUNTRY_CODE":"US",
       "LAUNCH_DATE":"2022-09-05",
       "SITE":"AFETR",
       "DECAY_DATE":"2022-10-30",
       "FILE":"3637742",
       "GP_ID":"216452159",
       "TLE_LINE0":"0 STARLINK-4704",
       "TLE_LINE1":"1 53725U 22107AB  22302.63969343  .15917474  12139-4  39117-2 0  9997",
       "TLE_LINE2":"2 53725  53.1999 353.7843 0008317  38.8738 102.2228 16.28400829  8813"
    },
    {
       "CCSDS_OMM_VERS":"2.0",
       "COMMENT":"GENERATED VIA SPACE-TRACK.ORG API",
       "CREATION_DATE":"2022-10-17T13:36:12",
       "ORIGINATOR":"18 SPCS",
       "OBJECT_NAME":"STARLINK-4613",
       "OBJECT_ID":"2022-107AR",
       "CENTER_NAME":"EARTH",
       "REF_FRAME":"TEME",
       "TIME_SYSTEM":"UTC",
       "MEAN_ELEMENT_THEORY":"SGP4",
       "EPOCH":"2022-10-17T13:12:42.043968",
       "MEAN_MOTION":"16.56711661",
       "ECCENTRICITY":"0.00058170",
       "INCLINATION":"53.1929",
       "RA_OF_ASC_NODE":"55.7457",
       "ARG_OF_PERICENTER":"11.0210",
       "MEAN_ANOMALY":"74.9926",
       "EPHEMERIS_TYPE":"0",
       "CLASSIFICATION_TYPE":"U",
       "NORAD_CAT_ID":"53739",
       "ELEMENT_SET_NO":"999",
       "REV_AT_EPOCH":"680",
       "BSTAR":"0.00019962000000",
       "MEAN_MOTION_DOT":"0.49024869",
       "MEAN_MOTION_DDOT":"0.0000129020000",
       "SEMIMAJOR_AXIS":"6499.858",
       "PERIOD":"86.919",
       "APOAPSIS":"125.504",
       "PERIAPSIS":"117.942",
       "OBJECT_TYPE":"PAYLOAD",
       "RCS_SIZE":"LARGE",
       "COUNTRY_CODE":"US",
       "LAUNCH_DATE":"2022-09-05",
       "SITE":"AFETR",
       "DECAY_DATE":"2022-10-17",
       "FILE":"3618781",
       "GP_ID":"215367058",
       "TLE_LINE0":"0 STARLINK-4613",
       "TLE_LINE1":"1 53739U 22107AR  22290.55048662  .49024869  12902-4  19962-3 0  9990",
       "TLE_LINE2":"2 53739  53.1929  55.7457 0005817  11.0210  74.9926 16.56711661  6808"
    }
 ]